#cP2023  6 27  0  0  0.00000000     289 d+D   IGS20 EXT AIUB
## 2268 172800.00000000   300.00000000 60122 0.0000000000000
+   79   G01G02G03G04G05G06G07G08G09G10G11G12G13G14G15G16G17
+        G18G19G20G21G22G23G24G25G26G27G28G29G30G31G32R01R02
+        R03R04R05R07R08R09R11R12R13R14R15R16R17R18R19R20R21
+        R22R24R25E02E03E04E05E07E08E09E10E11E12E13E14E15E18
+        E19E21E24E25E26E27E30E31E33E34E36  0  0  0  0  0  0
++         6  7  7  6  7  5  7  6  6  7  7  8  8  7  7  7  7
++         7  7  8  7  7  7  5  6  7  8  7  7  6  8  6  9  7
++         8  8  8  8  8  8  6  7  8  7  7  8  8  7  9  9  8
++         6  8  7  7  6  6  7  6  6  6  7  7  6  7  6  7  7
++         6  6  7  6  7  7  7  7  8  7  7  0  0  0  0  0  0
%c M  cc GPS ccc cccc cccc cccc cccc ccccc ccccc ccccc ccccc
%c cc cc ccc ccc cccc cccc cccc cccc ccccc ccccc ccccc ccccc
%f  1.2500000  1.025000000  0.00000000000  0.000000000000000
%f  0.0000000  0.000000000  0.00000000000  0.000000000000000
%i    0    0    0    0      0      0      0      0         0
%i    0    0    0    0      0      0      0      0         0
/* CENTER FOR ORBIT DETERMINATION IN EUROPE (CODE)          
/* RAPID ORBIT PREDICTION (24 HOURS) FOR YEAR-DAY 23178     
/* THIS IS A PREDICTED ORBIT, USE WITH CARE.                
/* PCV:IGS20      OL/AL:FES2014b NONE     YN ORB:CoN CLK:BRD
*  2023  6 27 12  5  0.00000000
PG01  13310.129928 -14733.651436  17120.641076    175.920233               P   P
PG02  14648.282338  -8770.312202  20812.006655   -581.806018               P   P
PG03  22593.382344 -13105.733068  -4587.811268   -255.093924               P   P
PG04  14371.872807  -7325.278488 -21108.139568     79.767383               P   P
PG05 -23973.523546   3001.741638 -11340.488383   -132.711563               P   P
PG06  -5961.969859 -22184.656445 -13189.956404    582.509353               P   P
PG07   6013.821428 -25167.171435  -4236.904113    141.031218               P   P
PG08  21999.358858   2658.814353  14853.665368   -129.390530               P   P
PG09   4586.590878 -15211.984078 -21350.954329   -125.946078               P   P
PG10   3607.279178  14584.198512  22059.183416    -42.872174               P   P
PG11 -13462.084782  -8587.729077 -21225.213280   -252.313631               P   P
PG12 -24529.082048   9955.572517  -1787.231303   -393.735477               P   P
PG13 -21689.984467 -11613.858933  10093.651156    539.606022               P   P
PG14    119.949247 -16249.254116  21000.174014    104.119449               P   P
PG15 -21981.542511    412.716437  14617.677729     52.715520               P   P
PG16  22763.152346   2726.420277 -14093.540734   -487.118679               P   P
PG17 -10281.531247 -20652.722465  13493.461469    719.593090               P   P
PG18  -4756.976166  25975.042639  -1848.680060   -323.860326               P   P
PG19 -16284.661962 -20335.161468   5751.649192    336.200468               P   P
PG20 -18716.836998  -3535.167943 -18396.685686    425.750482               P   P
PG21  15246.675834  -4667.578794  21653.629161    152.735782               P   P
PG22  18080.304270  19304.832205   3670.776651    504.293139               P   P
PG23  -9780.040210  17538.520879  17305.355636     37.295208               P   P
PG24 -14454.546372  10521.424854  19151.142395   -239.007793               P   P
PG25 -16432.895762  16915.801882 -12263.712456    452.518144               P   P
PG26  14255.098992   9637.555175 -20425.424441    238.045107               P   P
PG27  23038.297084  12533.651810   5156.931297      8.228727               P   P
PG28   6069.985179  23255.068336 -11330.430944     83.620018               P   P
PG29  -7370.803749  13198.257871 -21885.591221   -604.032728               P   P
PG30   -651.060707 -25919.556052   5179.694209   -508.265249               P   P
PG31  11963.042048  13723.117572 -19364.169301   -218.984329               P   P
PG32  13712.136855  19891.286966  11440.422303   -509.279414               P   P
PR01  18373.073724  10665.729017  14109.539712     60.235023               P   P
PR02  24909.213494   4329.019516  -3581.489246    -22.686939               P   P
PR03  16830.023657  -5012.588935 -18478.255371     80.436468               P   P
PR04   -376.282503 -11065.073310 -22949.156497    192.831359               P   P
PR05 -17283.076287 -11354.120087 -14907.278754    114.868058               P   P
PR07 -16038.183776   5471.761380  19087.622424     58.960671               P   P
PR08    656.687881  11256.443842  22942.040885    -71.394304               P   P
PR09 -17062.874194   5698.831272  18143.660710    128.116612               P   P
PR11  -9995.870734  19831.889870 -12550.903309    -90.045272               P   P
PR12   5601.129747  10007.451851 -22754.065370     28.518920               P   P
PR13  16101.038095  -3902.021606 -19403.944999    -36.524683               P   P
PR14  18191.814732 -17563.790351  -3246.893722     24.883157               P   P
PR15   9156.156375 -19521.058339  13646.472856     88.286586               P   P
PR16  -5347.660388 -10101.686023  22814.415040     16.086269               P   P
PR17   6528.145508 -12273.360288  21398.293645    642.760269               P   P
PR18  -2054.042099 -23397.908183   9899.210957     88.686387               P   P
PR19  -8457.653976 -23458.647162  -5394.144877   -237.791371               P   P
PR20 -11711.643300  -7669.206273 -21312.972214    -95.497891               P   P
PR21  -5945.710083  13379.708194 -20886.243360    -18.415273               P   P
PR22   1658.387230  23855.907482  -8873.479492     85.766560               P   P
PR24  12337.423437   6497.388539  21364.495909    -13.899918               P   P
PR25  -7422.233964  11875.066374 -21315.192961     57.971137               P   P
PE02  -3575.604804  18763.791589 -22608.796172     46.478694               P   P
PE03   8216.551114  21524.750147  18575.477027    -30.446277               P   P
PE04 -23284.738160 -18124.115152  -2380.304608   -154.037115               P   P
PE05 -11905.845153  12355.668554  24127.029084     -5.688753               P   P
PE07  24981.467887   4225.361647 -15284.751951    -55.761063               P   P
PE08  23130.513227  18250.676001   2756.032446   -105.517911               P   P
PE09 -25007.921695  -4407.737625  15231.697295    -64.712563               P   P
PE10 -14905.984901  -8512.332185 -24130.164841   -544.297559               P   P
PE11 -16213.996607   3900.529003 -24474.787067   2336.429275               P   P
PE12 -11508.216850 -18507.555009 -20033.603560   -596.078991               P   P
PE13  16127.054063  -3038.576904  24628.706679    -19.310097               P   P
PE14 -25343.277825    775.584454 -20078.971358    265.961363               P   P
PE15  11301.828864  18837.594577  19838.435244    -32.662993               P   P
PE18  14722.356056  -6814.443635  17610.684665    230.203517               P   P
PE19  -5612.027237 -20935.592718 -20149.096294  -2204.936325               P   P
PE21  21250.314916 -17814.282119  10355.824793   -537.414622               P   P
PE24 -27530.692412   5846.077453   9130.864366   -178.057472               P   P
PE25 -21502.703440  17689.713536 -10035.461351   -607.415517               P   P
PE26  11230.913310 -23376.064129  14266.267276    146.333818               P   P
PE27  27597.024486  -6472.341971  -8530.370880    -85.039408               P   P
PE30  17176.963952   9023.397775 -22362.771975   -289.330554               P   P
PE31 -17617.475516  -8569.284882  22199.187201   -526.771255               P   P
PE33    148.836451 -29401.980419  -3388.207220   -442.641918               P   P
PE34    -18.541405  29385.828964   3506.640921    -53.034990               P   P
PE36 -11454.879462  22845.956719 -14946.067530    -77.467356               P   P
EOF
